{
  "type": "FeatureCollection",
  "features": [
    {
      "type": "Feature",
      "properties": {
        "norad_id": 37781,
        "name": "HAIYANG-2A",
        "group": "resource",
        "lat": -80.58373056460938,
        "lon": 73.38067390804933,
        "alt_km": 976.5127088401559,
        "timestamp": "2025-12-15T15:53:19.535218+00:00",
        "meta_object_name": "HAIYANG-2A",
        "meta_object_id": "2011-043A",
        "meta_epoch": "2025-12-14T22:54:13.863168",
        "meta_mean_motion": 13.78835593,
        "meta_eccentricity": 0.00016507,
        "meta_inclination": 99.3383,
        "meta_ra_of_asc_node": 349.8549,
        "meta_arg_of_pericenter": 80.9689,
        "meta_mean_anomaly": 279.1649,
        "meta_ephemeris_type": 0,
        "meta_classification_type": "U",
        "meta_norad_cat_id": 37781,
        "meta_element_set_no": 999,
        "meta_rev_at_epoch": 72129,
        "meta_bstar": 0.00016465812,
        "meta_mean_motion_dot": 1.24e-06,
        "meta_mean_motion_ddot": 0,
        "tle_line1": "1 37781U 11043A   25348.95432712  .00000124  00000+0  16466-3 0  9992",
        "tle_line2": "2 37781  99.3383 349.8549 0001650  80.9689 279.1649 13.78835593721298"
      },
      "geometry": {
        "type": "Point",
        "coordinates": [
          73.38067390804933,
          -80.58373056460938
        ]
      }
    },
    {
      "type": "Feature",
      "properties": {
        "norad_id": 37791,
        "name": "RASAT",
        "group": "resource",
        "lat": -62.3250388516275,
        "lon": -116.80911067701676,
        "alt_km": 690.1579727750131,
        "timestamp": "2025-12-15T15:53:19.535229+00:00",
        "meta_object_name": "RASAT",
        "meta_object_id": "2011-044D",
        "meta_epoch": "2025-12-14T22:55:42.759264",
        "meta_mean_motion": 14.67913772,
        "meta_eccentricity": 0.00218069,
        "meta_inclination": 98.0646,
        "meta_ra_of_asc_node": 78.1798,
        "meta_arg_of_pericenter": 58.3718,
        "meta_mean_anomaly": 52.8575,
        "meta_ephemeris_type": 0,
        "meta_classification_type": "U",
        "meta_norad_cat_id": 37791,
        "meta_element_set_no": 999,
        "meta_rev_at_epoch": 76615,
        "meta_bstar": 0.00013270661,
        "meta_mean_motion_dot": 7.13e-06,
        "meta_mean_motion_ddot": 0,
        "tle_line1": "1 37791U 11044D   25348.95535601  .00000713  00000+0  13271-3 0  9990",
        "tle_line2": "2 37791  98.0646  78.1798 0021806  58.3718  52.8575 14.67913772766155"
      },
      "geometry": {
        "type": "Point",
        "coordinates": [
          -116.80911067701676,
          -62.3250388516275
        ]
      }
    },
    {
      "type": "Feature",
      "properties": {
        "norad_id": 37841,
        "name": "SRMSAT",
        "group": "resource",
        "lat": -5.405385296490098,
        "lon": -74.6291185066721,
        "alt_km": 859.9165284089086,
        "timestamp": "2025-12-15T15:53:19.535239+00:00",
        "meta_object_name": "SRMSAT",
        "meta_object_id": "2011-058D",
        "meta_epoch": "2025-12-14T15:48:49.457664",
        "meta_mean_motion": 14.11512147,
        "meta_eccentricity": 0.00118046,
        "meta_inclination": 19.9714,
        "meta_ra_of_asc_node": 96.3351,
        "meta_arg_of_pericenter": 334.6313,
        "meta_mean_anomaly": 153.0609,
        "meta_ephemeris_type": 0,
        "meta_classification_type": "U",
        "meta_norad_cat_id": 37841,
        "meta_element_set_no": 999,
        "meta_rev_at_epoch": 73171,
        "meta_bstar": 0.00010517798,
        "meta_mean_motion_dot": 4.58e-06,
        "meta_mean_motion_ddot": 0,
        "tle_line1": "1 37841U 11058D   25348.65890576  .00000458  00000+0  10518-3 0  9990",
        "tle_line2": "2 37841  19.9714  96.3351 0011804 334.6313 153.0609 14.11512147731710"
      },
      "geometry": {
        "type": "Point",
        "coordinates": [
          -74.6291185066721,
          -5.405385296490098
        ]
      }
    },
    {
      "type": "Feature",
      "properties": {
        "norad_id": 38012,
        "name": "PLEIADES 1A",
        "group": "resource",
        "lat": -58.73377424138662,
        "lon": 76.09182962167566,
        "alt_km": 705.5230550500419,
        "timestamp": "2025-12-15T15:53:19.535249+00:00",
        "meta_object_name": "PLEIADES 1A",
        "meta_object_id": "2011-076F",
        "meta_epoch": "2025-12-15T00:15:37.203264",
        "meta_mean_motion": 14.58564623,
        "meta_eccentricity": 0.00012837,
        "meta_inclination": 98.182,
        "meta_ra_of_asc_node": 61.7442,
        "meta_arg_of_pericenter": 73.9104,
        "meta_mean_anomaly": 49.2126,
        "meta_ephemeris_type": 0,
        "meta_classification_type": "U",
        "meta_norad_cat_id": 38012,
        "meta_element_set_no": 999,
        "meta_rev_at_epoch": 74514,
        "meta_bstar": 0.00013682103,
        "meta_mean_motion_dot": 5.91e-06,
        "meta_mean_motion_ddot": 0,
        "tle_line1": "1 38012U 11076F   25349.01084726  .00000591  00000+0  13682-3 0  9997",
        "tle_line2": "2 38012  98.1820  61.7442 0001283  73.9104  49.2126 14.58564623745145"
      },
      "geometry": {
        "type": "Point",
        "coordinates": [
          76.09182962167566,
          -58.73377424138662
        ]
      }
    },
    {
      "type": "Feature",
      "properties": {
        "norad_id": 38038,
        "name": "ZIYUAN 1-02C (ZY 1-02C)",
        "group": "resource",
        "lat": -7.764992631681981,
        "lon": 56.780808093467186,
        "alt_km": 772.8275822351279,
        "timestamp": "2025-12-15T15:53:19.535259+00:00",
        "meta_object_name": "ZIYUAN 1-02C (ZY 1-02C)",
        "meta_object_id": "2011-079A",
        "meta_epoch": "2025-12-14T23:47:56.303232",
        "meta_mean_motion": 14.38015597,
        "meta_eccentricity": 0.00072816,
        "meta_inclination": 98.4331,
        "meta_ra_of_asc_node": 54.9637,
        "meta_arg_of_pericenter": 132.2976,
        "meta_mean_anomaly": 351.4258,
        "meta_ephemeris_type": 0,
        "meta_classification_type": "U",
        "meta_norad_cat_id": 38038,
        "meta_element_set_no": 999,
        "meta_rev_at_epoch": 73273,
        "meta_bstar": 0.00023708652,
        "meta_mean_motion_dot": 6.74e-06,
        "meta_mean_motion_ddot": 0,
        "tle_line1": "1 38038U 11079A   25348.99162388  .00000674  00000+0  23709-3 0  9998",
        "tle_line2": "2 38038  98.4331  54.9637 0007281 132.2976 351.4258 14.38015597732737"
      },
      "geometry": {
        "type": "Point",
        "coordinates": [
          56.780808093467186,
          -7.764992631681981
        ]
      }
    },
    {
      "type": "Feature",
      "properties": {
        "norad_id": 38046,
        "name": "ZIYUAN 3-1 (ZY 3-1)",
        "group": "resource",
        "lat": 78.90742082396328,
        "lon": 16.162402667150214,
        "alt_km": 354.73492694973356,
        "timestamp": "2025-12-15T15:53:19.535268+00:00",
        "meta_object_name": "ZIYUAN 3-1 (ZY 3-1)",
        "meta_object_id": "2012-001A",
        "meta_epoch": "2025-12-14T22:42:18.224064",
        "meta_mean_motion": 15.68934649,
        "meta_eccentricity": 0.00016545,
        "meta_inclination": 97.1756,
        "meta_ra_of_asc_node": 55.4157,
        "meta_arg_of_pericenter": 338.2024,
        "meta_mean_anomaly": 21.9168,
        "meta_ephemeris_type": 0,
        "meta_classification_type": "U",
        "meta_norad_cat_id": 38046,
        "meta_element_set_no": 999,
        "meta_rev_at_epoch": 77531,
        "meta_bstar": 0.0004598432,
        "meta_mean_motion_dot": 0.00052937,
        "meta_mean_motion_ddot": 0,
        "tle_line1": "1 38046U 12001A   25348.94604426  .00052937  00000+0  45984-3 0  9990",
        "tle_line2": "2 38046  97.1756  55.4157 0001654 338.2024  21.9168 15.68934649775318"
      },
      "geometry": {
        "type": "Point",
        "coordinates": [
          16.162402667150214,
          78.90742082396328
        ]
      }
    },
    {
      "type": "Feature",
      "properties": {
        "norad_id": 38338,
        "name": "ARIRANG-3 (KOMPSAT-3)",
        "group": "resource",
        "lat": -50.201135742539634,
        "lon": 114.14160412683283,
        "alt_km": 695.0659741651671,
        "timestamp": "2025-12-15T15:53:19.535277+00:00",
        "meta_object_name": "ARIRANG-3 (KOMPSAT-3)",
        "meta_object_id": "2012-025B",
        "meta_epoch": "2025-12-14T22:24:23.721696",
        "meta_mean_motion": 14.61715997,
        "meta_eccentricity": 0.00052164,
        "meta_inclination": 98.3324,
        "meta_ra_of_asc_node": 303.5395,
        "meta_arg_of_pericenter": 331.4887,
        "meta_mean_anomaly": 28.6028,
        "meta_ephemeris_type": 0,
        "meta_classification_type": "U",
        "meta_norad_cat_id": 38338,
        "meta_element_set_no": 999,
        "meta_rev_at_epoch": 72442,
        "meta_bstar": 0.00014978994,
        "meta_mean_motion_dot": 6.98e-06,
        "meta_mean_motion_ddot": 0,
        "tle_line1": "1 38338U 12025B   25348.93360789  .00000698  00000+0  14979-3 0  9997",
        "tle_line2": "2 38338  98.3324 303.5395 0005216 331.4887  28.6028 14.61715997724427"
      },
      "geometry": {
        "type": "Point",
        "coordinates": [
          114.14160412683283,
          -50.201135742539634
        ]
      }
    }
  ]
}